whois,reputation,indicator,type,type_title,base_indicator,pulse_info,false_positive,validation,asn,city_data,city,region,continent_code,country_code3,country_code2,subdivision,latitude,postal_code,longitude,accuracy_radius,country_code,country_name,dma_code,charset,area_code,flag_url,flag_title,sections
,,,,,,,,,,,,,,,,,,,,,,,,,,,,
http://whois.domaintools.com/175.103.43.90,0.0,175.103.43.90,IPv4,IPv4,{},"{'count': 0, 'pulses': [], 'references': [], 'related': {'alienvault': {'adversary': [], 'malware_families': [], 'industries': []}, 'other': {'adversary': [], 'malware_families': [], 'industries': []}}}",[],[],AS38320 pt maxindo mitra solusi,True,Jakarta,JK,AS,IDN,ID,JK,-6.1741,,106.8296,1000.0,ID,Indonesia,0.0,0.0,0.0,/assets/images/flags/id.png,Indonesia,"['general', 'geo', 'reputation', 'url_list', 'passive_dns', 'malware', 'nids_list', 'http_scans']"
http://whois.domaintools.com/103.146.63.122,0.0,103.146.63.122,IPv4,IPv4,{},"{'count': 0, 'pulses': [], 'references': [], 'related': {'alienvault': {'adversary': [], 'malware_families': [], 'industries': []}, 'other': {'adversary': [], 'malware_families': [], 'industries': []}}}",[],[],AS139457 pt semut data indonesia,True,,,AS,IDN,ID,,-6.1728,,106.8272,1000.0,ID,Indonesia,0.0,0.0,0.0,/assets/images/flags/id.png,Indonesia,"['general', 'geo', 'reputation', 'url_list', 'passive_dns', 'malware', 'nids_list', 'http_scans']"
http://whois.domaintools.com/103.234.253.216,0.0,103.234.253.216,IPv4,IPv4,{},"{'count': 0, 'pulses': [], 'references': [], 'related': {'alienvault': {'adversary': [], 'malware_families': [], 'industries': []}, 'other': {'adversary': [], 'malware_families': [], 'industries': []}}}",[],[],AS38320 pt maxindo mitra solusi,True,Tangerang,BT,AS,IDN,ID,BT,-6.177,,106.6284,20.0,ID,Indonesia,0.0,0.0,0.0,/assets/images/flags/id.png,Indonesia,"['general', 'geo', 'reputation', 'url_list', 'passive_dns', 'malware', 'nids_list', 'http_scans']"
http://whois.domaintools.com/103.235.32.97,0.0,103.235.32.97,IPv4,IPv4,{},"{'count': 0, 'pulses': [], 'references': [], 'related': {'alienvault': {'adversary': [], 'malware_families': [], 'industries': []}, 'other': {'adversary': [], 'malware_families': [], 'industries': []}}}",[],[],AS38320 pt maxindo mitra solusi,True,Tangerang,BT,AS,IDN,ID,BT,-6.177,,106.6284,20.0,ID,Indonesia,0.0,0.0,0.0,/assets/images/flags/id.png,Indonesia,"['general', 'geo', 'reputation', 'url_list', 'passive_dns', 'malware', 'nids_list', 'http_scans']"
http://whois.domaintools.com/209.58.183.231,0.0,209.58.183.231,IPv4,IPv4,{},"{'count': 0, 'pulses': [], 'references': [], 'related': {'alienvault': {'adversary': [], 'malware_families': [], 'industries': []}, 'other': {'adversary': [], 'malware_families': [], 'industries': []}}}",[],[],AS59253 leaseweb asia pacific pte. ltd.,True,Singapore,,AS,SGP,SG,,1.3552,53,103.8859,1000.0,SG,Singapore,0.0,0.0,0.0,/assets/images/flags/sg.png,Singapore,"['general', 'geo', 'reputation', 'url_list', 'passive_dns', 'malware', 'nids_list', 'http_scans']"
http://whois.domaintools.com/122.144.2.204,0.0,122.144.2.204,IPv4,IPv4,{},"{'count': 0, 'pulses': [], 'references': [], 'related': {'alienvault': {'adversary': [], 'malware_families': [], 'industries': []}, 'other': {'adversary': [], 'malware_families': [], 'industries': []}}}",[],[],AS38320 pt maxindo mitra solusi,True,Jakarta,JK,AS,IDN,ID,JK,-6.1741,,106.8296,1.0,ID,Indonesia,0.0,0.0,0.0,/assets/images/flags/id.png,Indonesia,"['general', 'geo', 'reputation', 'url_list', 'passive_dns', 'malware', 'nids_list', 'http_scans']"
http://whois.domaintools.com/167.179.67.29,0.0,167.179.67.29,IPv4,IPv4,{},"{'count': 0, 'pulses': [], 'references': [], 'related': {'alienvault': {'adversary': [], 'malware_families': [], 'industries': []}, 'other': {'adversary': [], 'malware_families': [], 'industries': []}}}",[],[],AS20473 the constant company  llc,True,Shinagawa,13,AS,JPN,JP,13,35.6096,141-0033,139.7283,1000.0,JP,Japan,0.0,0.0,0.0,/assets/images/flags/jp.png,Japan,"['general', 'geo', 'reputation', 'url_list', 'passive_dns', 'malware', 'nids_list', 'http_scans']"
http://whois.domaintools.com/124.70.190.43,0.0,124.70.190.43,IPv4,IPv4,"{'id': 2561554655, 'indicator': '124.70.190.43', 'type': 'IPv4', 'title': '', 'description': '', 'content': '', 'access_type': 'public', 'access_reason': ''}","{'count': 0, 'pulses': [], 'references': [], 'related': {'alienvault': {'adversary': [], 'malware_families': [], 'industries': []}, 'other': {'adversary': [], 'malware_families': [], 'industries': []}}}",[],[],AS55990 huawei cloud service data center,True,,,AS,CHN,CN,,34.7732,,113.722,1000.0,CN,China,0.0,0.0,0.0,/assets/images/flags/cn.png,China,"['general', 'geo', 'reputation', 'url_list', 'passive_dns', 'malware', 'nids_list', 'http_scans']"
http://whois.domaintools.com/122.144.2.205,0.0,122.144.2.205,IPv4,IPv4,{},"{'count': 0, 'pulses': [], 'references': [], 'related': {'alienvault': {'adversary': [], 'malware_families': [], 'industries': []}, 'other': {'adversary': [], 'malware_families': [], 'industries': []}}}",[],[],AS38320 pt maxindo mitra solusi,True,Jakarta,JK,AS,IDN,ID,JK,-6.1741,,106.8296,1.0,ID,Indonesia,0.0,0.0,0.0,/assets/images/flags/id.png,Indonesia,"['general', 'geo', 'reputation', 'url_list', 'passive_dns', 'malware', 'nids_list', 'http_scans']"
http://whois.domaintools.com/47.245.119.50,0.0,47.245.119.50,IPv4,IPv4,{},"{'count': 0, 'pulses': [], 'references': [], 'related': {'alienvault': {'adversary': [], 'malware_families': [], 'industries': []}, 'other': {'adversary': [], 'malware_families': [], 'industries': []}}}",[],[],AS45102 alibaba (us) technology co.  ltd.,True,,,AS,SGP,SG,,1.3673,,103.8014,1000.0,SG,Singapore,0.0,0.0,0.0,/assets/images/flags/sg.png,Singapore,"['general', 'geo', 'reputation', 'url_list', 'passive_dns', 'malware', 'nids_list', 'http_scans']"
http://whois.domaintools.com/34.87.93.12,0.0,34.87.93.12,IPv4,IPv4,{},"{'count': 0, 'pulses': [], 'references': [], 'related': {'alienvault': {'adversary': [], 'malware_families': [], 'industries': []}, 'other': {'adversary': [], 'malware_families': [], 'industries': []}}}",[],"[{'source': 'cloud', 'message': 'In cloud provider range: provider=google', 'name': 'Cloud Provider IP range'}]",AS396982 google,True,Singapore,,AS,SGP,SG,,1.2929,18,103.8547,1000.0,SG,Singapore,0.0,0.0,0.0,/assets/images/flags/sg.png,Singapore,"['general', 'geo', 'reputation', 'url_list', 'passive_dns', 'malware', 'nids_list', 'http_scans']"
http://whois.domaintools.com/122.144.1.1,0.0,122.144.1.1,IPv4,IPv4,{},"{'count': 0, 'pulses': [], 'references': [], 'related': {'alienvault': {'adversary': [], 'malware_families': [], 'industries': []}, 'other': {'adversary': [], 'malware_families': [], 'industries': []}}}",[],[],AS38320 pt maxindo mitra solusi,True,Jakarta,JK,AS,IDN,ID,JK,-6.1741,,106.8296,1.0,ID,Indonesia,0.0,0.0,0.0,/assets/images/flags/id.png,Indonesia,"['general', 'geo', 'reputation', 'url_list', 'passive_dns', 'malware', 'nids_list', 'http_scans']"
http://whois.domaintools.com/34.141.79.142,0.0,34.141.79.142,IPv4,IPv4,{},"{'count': 0, 'pulses': [], 'references': [], 'related': {'alienvault': {'adversary': [], 'malware_families': [], 'industries': []}, 'other': {'adversary': [], 'malware_families': [], 'industries': []}}}",[],[],AS396982 google,True,Frankfurt am Main,HE,EU,DEU,DE,HE,50.1188,60313,8.6843,1000.0,DE,Germany,0.0,0.0,0.0,/assets/images/flags/de.png,Germany,"['general', 'geo', 'reputation', 'url_list', 'passive_dns', 'malware', 'nids_list', 'http_scans']"
http://whois.domaintools.com/74.125.130.94,0.0,74.125.130.94,IPv4,IPv4,{},"{'count': 0, 'pulses': [], 'references': [], 'related': {'alienvault': {'adversary': [], 'malware_families': [], 'industries': []}, 'other': {'adversary': [], 'malware_families': [], 'industries': []}}}",[],"[{'source': 'whitelist', 'message': 'contained in whitelisted prefix', 'name': 'Whitelisted IP'}]",AS15169 google llc,True,,,NA,USA,US,,37.751,,-97.822,1000.0,US,United States of America,0.0,0.0,0.0,/assets/images/flags/us.png,United States of America,"['general', 'geo', 'reputation', 'url_list', 'passive_dns', 'malware', 'nids_list', 'http_scans']"
http://whois.domaintools.com/142.250.4.93,0.0,142.250.4.93,IPv4,IPv4,{},"{'count': 0, 'pulses': [], 'references': [], 'related': {'alienvault': {'adversary': [], 'malware_families': [], 'industries': []}, 'other': {'adversary': [], 'malware_families': [], 'industries': []}}}",[],[],AS15169 google llc,True,,,NA,USA,US,,37.751,,-97.822,1000.0,US,United States of America,0.0,0.0,0.0,/assets/images/flags/us.png,United States of America,"['general', 'geo', 'reputation', 'url_list', 'passive_dns', 'malware', 'nids_list', 'http_scans']"
,,,,,,,,,,,,,,,,,,,,,,,,,,,,
http://whois.domaintools.com/47.241.191.117,0.0,47.241.191.117,IPv4,IPv4,{},"{'count': 0, 'pulses': [], 'references': [], 'related': {'alienvault': {'adversary': [], 'malware_families': [], 'industries': []}, 'other': {'adversary': [], 'malware_families': [], 'industries': []}}}",[],[],AS45102 alibaba (us) technology co.  ltd.,True,,,AS,SGP,SG,,1.3673,,103.8014,1000.0,SG,Singapore,0.0,0.0,0.0,/assets/images/flags/sg.png,Singapore,"['general', 'geo', 'reputation', 'url_list', 'passive_dns', 'malware', 'nids_list', 'http_scans']"
http://whois.domaintools.com/143.244.33.73,0.0,143.244.33.73,IPv4,IPv4,"{'id': 3609209279, 'indicator': '143.244.33.73', 'type': 'IPv4', 'title': '', 'description': '', 'content': '', 'access_type': 'public', 'access_reason': ''}","{'count': 4, 'pulses': [{'id': '63b0cd0691e86eceb0c2ba5f', 'name': 'LCIA:HoneyNet:2023', 'description': ""Louisiana Cyber Investigators Alliance (LCIA): HoneyPot Suricata Log: 2023 A unified coordinated group of federal, state, local law enforcement, as well as LA ESF-17 members, focused onsafeguarding Louisiana's networks through collaborative vigilance and thorough investigations http://www.la-safe.org"", 'modified': '2023-06-24T12:00:07.021000', 'created': '2023-01-01T00:00:05.491000', 'tags': ['tsec', 'tpot19', 'honeypot', 'la-safe.org'], 'references': [], 'public': 1, 'adversary': '', 'targeted_countries': [], 'malware_families': [], 'attack_ids': [], 'industries': [], 'TLP': 'green', 'cloned_from': None, 'export_count': 12, 'upvotes_count': 0, 'downvotes_count': 0, 'votes_count': 0, 'locked': False, 'pulse_source': 'api', 'validator_count': 0, 'comment_count': 0, 'follower_count': 0, 'vote': 0, 'author': {'username': 'ladarrellmiller', 'id': '111524', 'avatar_url': 'https://otx.alienvault.com/assets/images/default-avatar.png', 'is_subscribed': False, 'is_following': False}, 'indicator_type_counts': {'IPv4': 546084}, 'indicator_count': 546084, 'is_author': False, 'is_subscribing': None, 'subscriber_count': 240, 'modified_text': '149 days ago ', 'is_modified': True, 'groups': [], 'in_group': False, 'threat_hunter_scannable': True, 'threat_hunter_has_agents': 1, 'related_indicator_type': 'IPv4', 'related_indicator_is_active': 0}, {'id': '63b0cd08478c346bcbf32bc7', 'name': 'LCIA:HoneyNet:2023', 'description': ""Louisiana Cyber Investigators Alliance (LCIA): HoneyPot Suricata Log: 2023 A unified coordinated group of federal, state, local law enforcement, as well as LA ESF-17 members, focused onsafeguarding Louisiana's networks through collaborative vigilance and thorough investigations http://www.la-safe.org"", 'modified': '2023-06-24T12:00:07.021000', 'created': '2023-01-01T00:00:08.295000', 'tags': ['tsec', 'tpot19', 'honeypot', 'la-safe.org'], 'references': [], 'public': 1, 'adversary': '', 'targeted_countries': [], 'malware_families': [], 'attack_ids': [], 'industries': [], 'TLP': 'green', 'cloned_from': None, 'export_count': 15, 'upvotes_count': 0, 'downvotes_count': 0, 'votes_count': 0, 'locked': False, 'pulse_source': 'api', 'validator_count': 0, 'comment_count': 0, 'follower_count': 0, 'vote': 0, 'author': {'username': 'dm_lacia', 'id': '132921', 'avatar_url': 'https://otx.alienvault.com/assets/images/default-avatar.png', 'is_subscribed': False, 'is_following': False}, 'indicator_type_counts': {'IPv4': 538060}, 'indicator_count': 538060, 'is_author': False, 'is_subscribing': None, 'subscriber_count': 244, 'modified_text': '149 days ago ', 'is_modified': True, 'groups': [], 'in_group': False, 'threat_hunter_scannable': True, 'threat_hunter_has_agents': 1, 'related_indicator_type': 'IPv4', 'related_indicator_is_active': 0}, {'id': '63b0cd045756c5685eb6ba84', 'name': 'LCIA:HoneyNet:January 2023', 'description': ""Louisiana Cyber Investigators Alliance (LCIA): HoneyPot Suricata Log: 2023 A unified coordinated group of federal, state, local law enforcement, as well as LA ESF-17 members, focused onsafeguarding Louisiana's networks through collaborative vigilance and thorough investigations http://www.la-safe.org"", 'modified': '2023-03-02T23:03:02.478000', 'created': '2023-01-01T00:00:04.618000', 'tags': ['tsec', 'tpot19', 'honeypot', 'la-safe.org'], 'references': [], 'public': 1, 'adversary': '', 'targeted_countries': [], 'malware_families': [], 'attack_ids': [], 'industries': [], 'TLP': 'green', 'cloned_from': None, 'export_count': 13, 'upvotes_count': 0, 'downvotes_count': 0, 'votes_count': 0, 'locked': False, 'pulse_source': 'api', 'validator_count': 0, 'comment_count': 0, 'follower_count': 0, 'vote': 0, 'author': {'username': 'ladarrellmiller', 'id': '111524', 'avatar_url': 'https://otx.alienvault.com/assets/images/default-avatar.png', 'is_subscribed': False, 'is_following': False}, 'indicator_type_counts': {}, 'indicator_count': 0, 'is_author': False, 'is_subscribing': None, 'subscriber_count': 208, 'modified_text': '263 days ago ', 'is_modified': True, 'groups': [], 'in_group': False, 'threat_hunter_scannable': False, 'threat_hunter_has_agents': 1, 'related_indicator_type': 'IPv4', 'related_indicator_is_active': 0}, {'id': '63b0cd077b1d5edcde80b34f', 'name': 'LCIA:HoneyNet:January 2023', 'description': ""Louisiana Cyber Investigators Alliance (LCIA): HoneyPot Suricata Log: 2023 A unified coordinated group of federal, state, local law enforcement, as well as LA ESF-17 members, focused onsafeguarding Louisiana's networks through collaborative vigilance and thorough investigations http://www.la-safe.org"", 'modified': '2023-03-02T23:03:02.478000', 'created': '2023-01-01T00:00:07.509000', 'tags': ['tsec', 'tpot19', 'honeypot', 'la-safe.org'], 'references': [], 'public': 1, 'adversary': '', 'targeted_countries': [], 'malware_families': [], 'attack_ids': [], 'industries': [], 'TLP': 'green', 'cloned_from': None, 'export_count': 6, 'upvotes_count': 0, 'downvotes_count': 0, 'votes_count': 0, 'locked': False, 'pulse_source': 'api', 'validator_count': 0, 'comment_count': 0, 'follower_count': 0, 'vote': 0, 'author': {'username': 'dm_lacia', 'id': '132921', 'avatar_url': 'https://otx.alienvault.com/assets/images/default-avatar.png', 'is_subscribed': False, 'is_following': False}, 'indicator_type_counts': {}, 'indicator_count': 0, 'is_author': False, 'is_subscribing': None, 'subscriber_count': 203, 'modified_text': '263 days ago ', 'is_modified': True, 'groups': [], 'in_group': False, 'threat_hunter_scannable': False, 'threat_hunter_has_agents': 1, 'related_indicator_type': 'IPv4', 'related_indicator_is_active': 0}], 'references': [], 'related': {'alienvault': {'adversary': [], 'malware_families': [], 'industries': []}, 'other': {'adversary': [], 'malware_families': [], 'industries': []}}}",[],[],AS60068 datacamp limited,True,Singapore,,AS,SGP,SG,,1.2929,18,103.8547,1000.0,SG,Singapore,0.0,0.0,0.0,/assets/images/flags/sg.png,Singapore,"['general', 'geo', 'reputation', 'url_list', 'passive_dns', 'malware', 'nids_list', 'http_scans']"
http://whois.domaintools.com/92.223.85.121,0.0,92.223.85.121,IPv4,IPv4,{},"{'count': 0, 'pulses': [], 'references': [], 'related': {'alienvault': {'adversary': [], 'malware_families': [], 'industries': []}, 'other': {'adversary': [], 'malware_families': [], 'industries': []}}}",[],[],AS199524 g-core labs s.a.,True,Singapore,,AS,SGP,SG,,1.3078,62,103.6818,1000.0,SG,Singapore,0.0,0.0,0.0,/assets/images/flags/sg.png,Singapore,"['general', 'geo', 'reputation', 'url_list', 'passive_dns', 'malware', 'nids_list', 'http_scans']"
http://whois.domaintools.com/23.215.35.102,0.0,23.215.35.102,IPv4,IPv4,{},"{'count': 0, 'pulses': [], 'references': [], 'related': {'alienvault': {'adversary': [], 'malware_families': [], 'industries': []}, 'other': {'adversary': [], 'malware_families': [], 'industries': []}}}",[],[],AS20940 akamai international b.v.,True,Paris,IDF,EU,FRA,FR,75,48.8607,75001,2.3281,1000.0,FR,France,0.0,0.0,0.0,/assets/images/flags/fr.png,France,"['general', 'geo', 'reputation', 'url_list', 'passive_dns', 'malware', 'nids_list', 'http_scans']"
http://whois.domaintools.com/45.121.219.250,0.0,45.121.219.250,IPv4,IPv4,{},"{'count': 0, 'pulses': [], 'references': [], 'related': {'alienvault': {'adversary': [], 'malware_families': [], 'industries': []}, 'other': {'adversary': [], 'malware_families': [], 'industries': []}}}",[],"[{'source': 'whitelist', 'message': 'contained in whitelisted prefix', 'name': 'Whitelisted IP'}]",AS131702 moratelindo internet exchange,True,,,AS,IDN,ID,,-6.1728,,106.8272,1000.0,ID,Indonesia,0.0,0.0,0.0,/assets/images/flags/id.png,Indonesia,"['general', 'geo', 'reputation', 'url_list', 'passive_dns', 'malware', 'nids_list', 'http_scans']"
http://whois.domaintools.com/8.222.222.85,0.0,8.222.222.85,IPv4,IPv4,{},"{'count': 0, 'pulses': [], 'references': [], 'related': {'alienvault': {'adversary': [], 'malware_families': [], 'industries': []}, 'other': {'adversary': [], 'malware_families': [], 'industries': []}}}",[],[],ASNone ,True,,,AS,SGP,SG,,1.3673,,103.8014,50.0,SG,Singapore,0.0,0.0,0.0,/assets/images/flags/sg.png,Singapore,"['general', 'geo', 'reputation', 'url_list', 'passive_dns', 'malware', 'nids_list', 'http_scans']"
http://whois.domaintools.com/35.247.161.22,0.0,35.247.161.22,IPv4,IPv4,{},"{'count': 0, 'pulses': [], 'references': [], 'related': {'alienvault': {'adversary': [], 'malware_families': [], 'industries': []}, 'other': {'adversary': [], 'malware_families': [], 'industries': []}}}",[],"[{'source': 'cloud', 'message': 'In cloud provider range: provider=google', 'name': 'Cloud Provider IP range'}]",AS396982 google,True,Singapore,,AS,SGP,SG,,1.2929,18,103.8547,1000.0,SG,Singapore,0.0,0.0,0.0,/assets/images/flags/sg.png,Singapore,"['general', 'geo', 'reputation', 'url_list', 'passive_dns', 'malware', 'nids_list', 'http_scans']"
http://whois.domaintools.com/47.236.14.98,0.0,47.236.14.98,IPv4,IPv4,{},"{'count': 0, 'pulses': [], 'references': [], 'related': {'alienvault': {'adversary': [], 'malware_families': [], 'industries': []}, 'other': {'adversary': [], 'malware_families': [], 'industries': []}}}",[],[],ASNone ,True,,,NA,USA,US,,37.751,,-97.822,1000.0,US,United States of America,0.0,0.0,0.0,/assets/images/flags/us.png,United States of America,"['general', 'geo', 'reputation', 'url_list', 'passive_dns', 'malware', 'nids_list', 'http_scans']"
http://whois.domaintools.com/92.223.85.164,0.0,92.223.85.164,IPv4,IPv4,"{'id': 3454755264, 'indicator': '92.223.85.164', 'type': 'IPv4', 'title': '', 'description': '', 'content': '', 'access_type': 'public', 'access_reason': ''}","{'count': 0, 'pulses': [], 'references': [], 'related': {'alienvault': {'adversary': [], 'malware_families': [], 'industries': []}, 'other': {'adversary': [], 'malware_families': [], 'industries': []}}}",[],[],AS199524 g-core labs s.a.,True,Singapore,,AS,SGP,SG,,1.3078,62,103.6818,1000.0,SG,Singapore,0.0,0.0,0.0,/assets/images/flags/sg.png,Singapore,"['general', 'geo', 'reputation', 'url_list', 'passive_dns', 'malware', 'nids_list', 'http_scans']"
http://whois.domaintools.com/216.128.135.246,0.0,216.128.135.246,IPv4,IPv4,{},"{'count': 0, 'pulses': [], 'references': [], 'related': {'alienvault': {'adversary': [], 'malware_families': [], 'industries': []}, 'other': {'adversary': [], 'malware_families': [], 'industries': []}}}",[],[],AS20473 the constant company  llc,True,,,NA,USA,US,,37.751,,-97.822,1000.0,US,United States of America,0.0,0.0,0.0,/assets/images/flags/us.png,United States of America,"['general', 'geo', 'reputation', 'url_list', 'passive_dns', 'malware', 'nids_list', 'http_scans']"
http://whois.domaintools.com/47.245.116.221,0.0,47.245.116.221,IPv4,IPv4,{},"{'count': 0, 'pulses': [], 'references': [], 'related': {'alienvault': {'adversary': [], 'malware_families': [], 'industries': []}, 'other': {'adversary': [], 'malware_families': [], 'industries': []}}}",[],[],AS45102 alibaba (us) technology co.  ltd.,True,,,AS,SGP,SG,,1.3673,,103.8014,1000.0,SG,Singapore,0.0,0.0,0.0,/assets/images/flags/sg.png,Singapore,"['general', 'geo', 'reputation', 'url_list', 'passive_dns', 'malware', 'nids_list', 'http_scans']"
http://whois.domaintools.com/47.241.116.15,0.0,47.241.116.15,IPv4,IPv4,{},"{'count': 0, 'pulses': [], 'references': [], 'related': {'alienvault': {'adversary': [], 'malware_families': [], 'industries': []}, 'other': {'adversary': [], 'malware_families': [], 'industries': []}}}",[],[],AS45102 alibaba (us) technology co.  ltd.,True,Singapore,,AS,SGP,SG,,1.2929,18,103.8547,1000.0,SG,Singapore,0.0,0.0,0.0,/assets/images/flags/sg.png,Singapore,"['general', 'geo', 'reputation', 'url_list', 'passive_dns', 'malware', 'nids_list', 'http_scans']"
http://whois.domaintools.com/47.241.61.177,0.0,47.241.61.177,IPv4,IPv4,{},"{'count': 0, 'pulses': [], 'references': [], 'related': {'alienvault': {'adversary': [], 'malware_families': [], 'industries': []}, 'other': {'adversary': [], 'malware_families': [], 'industries': []}}}",[],[],AS45102 alibaba (us) technology co.  ltd.,True,Singapore,,AS,SGP,SG,,1.2929,18,103.8547,1000.0,SG,Singapore,0.0,0.0,0.0,/assets/images/flags/sg.png,Singapore,"['general', 'geo', 'reputation', 'url_list', 'passive_dns', 'malware', 'nids_list', 'http_scans']"
